start=new Date('2022-09-30T00:00:00.000Z').valueOf();
sats=[{"BSTAR":"0.00007524800000","ELEMENT_SET_NO":"999","OBJECT_NAME":"STARLINK-1688","MEAN_MOTION_DDOT":"0.0000000000000","SITE":"AFETR","PERIOD":"95.592","MEAN_MOTION":"15.06398946","OBJECT_ID":"2020-062AY","MEAN_ANOMALY":"281.8565","TLE_LINE2":"2 46371  53.0568 239.8386 0001552  78.2598 281.8565 15.06398946115127","TLE_LINE1":"1 46371U 20062AY  22272.61811517  .00000839  00000-0  75248-4 0  9996","GP_ID":"213832553","RCS_SIZE":"LARGE","DECAY_DATE":null,"LAUNCH_DATE":"2020-09-03","OBJECT_TYPE":"PAYLOAD","CLASSIFICATION_TYPE":"U","EPOCH":"2022-09-29T14:50:05.150688","RA_OF_ASC_NODE":"239.8386","APOAPSIS":"548.292","CENTER_NAME":"EARTH","REF_FRAME":"TEME","PERIAPSIS":"546.142","TIME_SYSTEM":"UTC","MEAN_MOTION_DOT":"0.00000839","REV_AT_EPOCH":"11512","EPHEMERIS_TYPE":"0","INCLINATION":"53.0568","SEMIMAJOR_AXIS":"6925.352","MEAN_ELEMENT_THEORY":"SGP4","COUNTRY_CODE":"US","NORAD_CAT_ID":"46371","FILE":"3587117","ARG_OF_PERICENTER":"78.2598","ECCENTRICITY":"0.00015520"},{"TLE_LINE1":"1 46372U 20062AZ  22272.69367924  .00000503  00000-0  52694-4 0  9991","GP_ID":"213832802","TLE_LINE2":"2 46372  53.0549 259.4859 0001404  65.4169 294.6966 15.06398644114859","MEAN_ANOMALY":"294.6966","DECAY_DATE":null,"RCS_SIZE":"LARGE","MEAN_MOTION_DDOT":"0.0000000000000","OBJECT_NAME":"STARLINK-1689","ELEMENT_SET_NO":"999","MEAN_MOTION":"15.06398644","SITE":"AFETR","PERIOD":"95.592","BSTAR":"0.00005269400000","OBJECT_ID":"2020-062AZ","COUNTRY_CODE":"US","NORAD_CAT_ID":"46372","INCLINATION":"53.0549","SEMIMAJOR_AXIS":"6925.353","MEAN_ELEMENT_THEORY":"SGP4","ARG_OF_PERICENTER":"65.4169","ECCENTRICITY":"0.00014040","FILE":"3587117","EPOCH":"2022-09-29T16:38:53.886336","RA_OF_ASC_NODE":"259.4859","CLASSIFICATION_TYPE":"U","LAUNCH_DATE":"2020-09-03","OBJECT_TYPE":"PAYLOAD","TIME_SYSTEM":"UTC","EPHEMERIS_TYPE":"0","MEAN_MOTION_DOT":"0.00000503","REV_AT_EPOCH":"11485","CENTER_NAME":"EARTH","APOAPSIS":"548.190","PERIAPSIS":"546.245","REF_FRAME":"TEME"},{"TLE_LINE2":"2 46374  53.0549 190.3288 0001417 100.2370 259.8778 15.06399127115803","TLE_LINE1":"1 46374U 20062BB  22272.50845658  .00000994  00000-0  85605-4 0  9990","GP_ID":"213802630","MEAN_ANOMALY":"259.8778","DECAY_DATE":null,"RCS_SIZE":"LARGE","ELEMENT_SET_NO":"999","OBJECT_NAME":"STARLINK-1711","MEAN_MOTION_DDOT":"0.0000000000000","PERIOD":"95.592","SITE":"AFETR","MEAN_MOTION":"15.06399127","BSTAR":"0.00008560500000","OBJECT_ID":"2020-062BB","COUNTRY_CODE":"US","NORAD_CAT_ID":"46374","INCLINATION":"53.0549","SEMIMAJOR_AXIS":"6925.351","MEAN_ELEMENT_THEORY":"SGP4","ARG_OF_PERICENTER":"100.2370","ECCENTRICITY":"0.00014170","FILE":"3586894","RA_OF_ASC_NODE":"190.3288","EPOCH":"2022-09-29T12:12:10.648512","CLASSIFICATION_TYPE":"U","LAUNCH_DATE":"2020-09-03","OBJECT_TYPE":"PAYLOAD","TIME_SYSTEM":"UTC","MEAN_MOTION_DOT":"0.00000994","REV_AT_EPOCH":"11580","EPHEMERIS_TYPE":"0","APOAPSIS":"548.198","CENTER_NAME":"EARTH","REF_FRAME":"TEME","PERIAPSIS":"546.235"},{"BSTAR":"-0.00010322000000","ELEMENT_SET_NO":"999","OBJECT_NAME":"STARLINK-1724","MEAN_MOTION_DDOT":"0.0000000000000","SITE":"AFETR","PERIOD":"95.592","MEAN_MOTION":"15.06395516","OBJECT_ID":"2020-062BC","MEAN_ANOMALY":"272.3528","TLE_LINE2":"2 46375  53.0550 217.0358 0001358  87.7617 272.3528 15.06395516115573","GP_ID":"213770463","TLE_LINE1":"1 46375U 20062BC  22272.12465253 -.00001818  00000-0 -10322-3 0  9999","RCS_SIZE":"LARGE","DECAY_DATE":null,"LAUNCH_DATE":"2020-09-03","OBJECT_TYPE":"PAYLOAD","EPOCH":"2022-09-29T02:59:29.978592","CLASSIFICATION_TYPE":"U","RA_OF_ASC_NODE":"217.0358","APOAPSIS":"548.168","CENTER_NAME":"EARTH","REF_FRAME":"TEME","PERIAPSIS":"546.287","TIME_SYSTEM":"UTC","REV_AT_EPOCH":"11557","MEAN_MOTION_DOT":"-0.00001818","EPHEMERIS_TYPE":"0","SEMIMAJOR_AXIS":"6925.362","INCLINATION":"53.0550","MEAN_ELEMENT_THEORY":"SGP4","COUNTRY_CODE":"US","NORAD_CAT_ID":"46375","FILE":"3586358","ARG_OF_PERICENTER":"87.7617","ECCENTRICITY":"0.00013580"},{"OBJECT_ID":"2020-062BD","OBJECT_NAME":"STARLINK-1742","MEAN_MOTION_DDOT":"0.0000000000000","ELEMENT_SET_NO":"999","MEAN_MOTION":"15.06392171","PERIOD":"95.593","SITE":"AFETR","BSTAR":"-0.00004782000000","DECAY_DATE":null,"RCS_SIZE":"LARGE","TLE_LINE1":"1 46376U 20062BD  22272.27209851 -.00000993  00000-0 -47820-4 0  9993","GP_ID":"213803133","TLE_LINE2":"2 46376  53.0546 216.3915 0001313  87.4460 272.6679 15.06392171115411","MEAN_ANOMALY":"272.6679","TIME_SYSTEM":"UTC","EPHEMERIS_TYPE":"0","REV_AT_EPOCH":"11541","MEAN_MOTION_DOT":"-0.00000993","CENTER_NAME":"EARTH","APOAPSIS":"548.147","PERIAPSIS":"546.328","REF_FRAME":"TEME","EPOCH":"2022-09-29T06:31:49.311264","CLASSIFICATION_TYPE":"U","RA_OF_ASC_NODE":"216.3915","LAUNCH_DATE":"2020-09-03","OBJECT_TYPE":"PAYLOAD","ARG_OF_PERICENTER":"87.4460","ECCENTRICITY":"0.00013130","FILE":"3586894","COUNTRY_CODE":"US","NORAD_CAT_ID":"46376","INCLINATION":"53.0546","SEMIMAJOR_AXIS":"6925.373","MEAN_ELEMENT_THEORY":"SGP4"},{"OBJECT_ID":"2020-062BH","BSTAR":"0.00014862000000","MEAN_MOTION":"15.06400995","SITE":"AFETR","PERIOD":"95.592","OBJECT_NAME":"STARLINK-1758","MEAN_MOTION_DDOT":"0.0000000000000","ELEMENT_SET_NO":"999","RCS_SIZE":"LARGE","DECAY_DATE":null,"MEAN_ANOMALY":"284.0576","TLE_LINE1":"1 46380U 20062BH  22272.63654201  .00001933  00000-0  14862-3 0  9993","GP_ID":"213833302","TLE_LINE2":"2 46380  53.0531 239.7621 0001567  76.0587 284.0576 15.06400995115123","PERIAPSIS":"546.125","REF_FRAME":"TEME","CENTER_NAME":"EARTH","APOAPSIS":"548.296","EPHEMERIS_TYPE":"0","REV_AT_EPOCH":"11512","MEAN_MOTION_DOT":"0.00001933","TIME_SYSTEM":"UTC","OBJECT_TYPE":"PAYLOAD","LAUNCH_DATE":"2020-09-03","EPOCH":"2022-09-29T15:16:37.229664","RA_OF_ASC_NODE":"239.7621","CLASSIFICATION_TYPE":"U","FILE":"3587117","ECCENTRICITY":"0.00015670","ARG_OF_PERICENTER":"76.0587","MEAN_ELEMENT_THEORY":"SGP4","INCLINATION":"53.0531","SEMIMAJOR_AXIS":"6925.346","NORAD_CAT_ID":"46380","COUNTRY_CODE":"US"},{"COUNTRY_CODE":"US","NORAD_CAT_ID":"46382","INCLINATION":"53.0553","SEMIMAJOR_AXIS":"6925.404","MEAN_ELEMENT_THEORY":"SGP4","ARG_OF_PERICENTER":"70.4371","ECCENTRICITY":"0.00016050","FILE":"3586953","EPOCH":"2022-09-29T13:15:13.654368","RA_OF_ASC_NODE":"215.1442","CLASSIFICATION_TYPE":"U","LAUNCH_DATE":"2020-09-03","OBJECT_TYPE":"PAYLOAD","TIME_SYSTEM":"UTC","EPHEMERIS_TYPE":"0","REV_AT_EPOCH":"11561","MEAN_MOTION_DOT":"-0.00002126","CENTER_NAME":"EARTH","APOAPSIS":"548.380","PERIAPSIS":"546.157","REF_FRAME":"TEME","GP_ID":"213810173","TLE_LINE1":"1 46382U 20062BK  22272.55224137 -.00002126  00000-0 -12394-3 0  9992","TLE_LINE2":"2 46382  53.0553 215.1442 0001605  70.4371 289.6791 15.06382065115611","MEAN_ANOMALY":"289.6791","DECAY_DATE":null,"RCS_SIZE":"LARGE","OBJECT_NAME":"STARLINK-1769","MEAN_MOTION_DDOT":"0.0000000000000","ELEMENT_SET_NO":"999","MEAN_MOTION":"15.06382065","PERIOD":"95.593","SITE":"AFETR","BSTAR":"-0.00012394000000","OBJECT_ID":"2020-062BK"},{"MEAN_ANOMALY":"298.1855","TLE_LINE2":"2 46383  53.0541 261.3949 0001807  61.9316 298.1855 15.06399332114780","GP_ID":"213803382","TLE_LINE1":"1 46383U 20062BL  22272.27347764  .00001743  00000-0  13586-3 0  9990","RCS_SIZE":"LARGE","DECAY_DATE":null,"BSTAR":"0.00013586000000","ELEMENT_SET_NO":"999","OBJECT_NAME":"STARLINK-1770","MEAN_MOTION_DDOT":"0.0000000000000","PERIOD":"95.592","SITE":"AFETR","MEAN_MOTION":"15.06399332","OBJECT_ID":"2020-062BL","SEMIMAJOR_AXIS":"6925.351","INCLINATION":"53.0541","MEAN_ELEMENT_THEORY":"SGP4","COUNTRY_CODE":"US","NORAD_CAT_ID":"46383","FILE":"3586894","ARG_OF_PERICENTER":"61.9316","ECCENTRICITY":"0.00018070","LAUNCH_DATE":"2020-09-03","OBJECT_TYPE":"PAYLOAD","EPOCH":"2022-09-29T06:33:48.468096","RA_OF_ASC_NODE":"261.3949","CLASSIFICATION_TYPE":"U","APOAPSIS":"548.467","CENTER_NAME":"EARTH","REF_FRAME":"TEME","PERIAPSIS":"545.964","TIME_SYSTEM":"UTC","REV_AT_EPOCH":"11478","MEAN_MOTION_DOT":"0.00001743","EPHEMERIS_TYPE":"0"},{"OBJECT_ID":"2020-062BM","BSTAR":"0.00002855000000","OBJECT_NAME":"STARLINK-1771","MEAN_MOTION_DDOT":"0.0000000000000","ELEMENT_SET_NO":"999","MEAN_MOTION":"15.06383641","PERIOD":"95.593","SITE":"AFETR","RCS_SIZE":"LARGE","DECAY_DATE":null,"MEAN_ANOMALY":"282.0304","TLE_LINE1":"1 46384U 20062BM  22272.27717277  .00000144  00000-0  28550-4 0  9993","GP_ID":"213803633","TLE_LINE2":"2 46384  53.0529 261.3624 0001316  78.0832 282.0304 15.06383641114781","CENTER_NAME":"EARTH","APOAPSIS":"548.175","PERIAPSIS":"546.352","REF_FRAME":"TEME","TIME_SYSTEM":"UTC","EPHEMERIS_TYPE":"0","REV_AT_EPOCH":"11478","MEAN_MOTION_DOT":"0.00000144","LAUNCH_DATE":"2020-09-03","OBJECT_TYPE":"PAYLOAD","RA_OF_ASC_NODE":"261.3624","CLASSIFICATION_TYPE":"U","EPOCH":"2022-09-29T06:39:07.727328","FILE":"3586894","ARG_OF_PERICENTER":"78.0832","ECCENTRICITY":"0.00013160","INCLINATION":"53.0529","SEMIMAJOR_AXIS":"6925.399","MEAN_ELEMENT_THEORY":"SGP4","COUNTRY_CODE":"US","NORAD_CAT_ID":"46384"},{"CENTER_NAME":"EARTH","APOAPSIS":"548.170","PERIAPSIS":"546.251","REF_FRAME":"TEME","TIME_SYSTEM":"UTC","EPHEMERIS_TYPE":"0","MEAN_MOTION_DOT":"0.00002130","REV_AT_EPOCH":"11008","LAUNCH_DATE":"2020-10-06","OBJECT_TYPE":"PAYLOAD","EPOCH":"2022-09-29T19:23:26.546496","CLASSIFICATION_TYPE":"U","RA_OF_ASC_NODE":"58.9808","FILE":"3587051","ARG_OF_PERICENTER":"72.9090","ECCENTRICITY":"0.00013860","INCLINATION":"53.0560","SEMIMAJOR_AXIS":"6925.346","MEAN_ELEMENT_THEORY":"SGP4","COUNTRY_CODE":"US","NORAD_CAT_ID":"46532","OBJECT_ID":"2020-070A","BSTAR":"0.00016181000000","OBJECT_NAME":"STARLINK-1644","MEAN_MOTION_DDOT":"0.0000000000000","ELEMENT_SET_NO":"999","MEAN_MOTION":"15.06400956","PERIOD":"95.592","SITE":"AFETR","RCS_SIZE":"LARGE","DECAY_DATE":null,"MEAN_ANOMALY":"287.2051","TLE_LINE1":"1 46532U 20070A   22272.80794614  .00002130  00000-0  16181-3 0  9999","GP_ID":"213812762","TLE_LINE2":"2 46532  53.0560  58.9808 0001386  72.9090 287.2051 15.06400956110085"}];
